PROGRESS-MS 13          
1 44833U 19085A   20063.64058639  .00001304  00000-0  31632-4 0  9994
2 44833  51.6430 150.6996 0005537 344.2181 159.0995 15.49215867215657
STPSAT-4                
1 45043U 98067QY  20063.61295862  .00001572  00000-0  36304-4 0  9991
2 45043  51.6451 150.8071 0005393 342.6031  17.4763 15.49341724  5419
CYGNUS NG-13            
1 45175U 20011A   20063.64058639  .00001304  00000-0  31632-4 0  9995
2 45175  51.6430 150.6996 0005537 344.2181 159.0995 15.49215867215657
ANTARES DEB             
1 45176U 20011B   20047.76166641 -.00003896  12318-4  00000-0 0  9993
2 45176  51.6205 229.3912 0033290  21.1916  54.0592 16.36693095   158
ARGUS-02                
1 45256U 98067QZ  20064.51239147  .00004983  00000-0  95531-4 0  9997
2 45256  51.6419 146.3277 0007835 334.8100  25.2505 15.49903114  2224
AZTECHSAT-1             
1 45257U 98067RA  20064.51161639  .00003945  00000-0  77136-4 0  9996
2 45257  51.6421 146.3227 0008483 336.9317  23.1290 15.49973238  2228
CRYOCUBE                
1 45258U 98067RB  20064.51180095  .00003200  00000-0  64182-4 0  9995
2 45258  51.6417 146.3232 0006268 319.1979  40.8540 15.49932726  2193
HARP                    
1 45259U 98067RC  20063.60954530  .00005924  00000-0  11196-3 0  9999
2 45259  51.6417 150.7978 0007864 331.2884  28.7671 15.49921771  2089
PHOENIX                 
1 45260U 98067RD  20063.60812804  .00005776  00000-0  10874-3 0  9995
2 45260  51.6417 150.7884 0008616 329.9835  30.0659 15.50083768  2093
QARMAN                  
1 45261U 98067RE  20064.51078048  .00006443  00000-0  12029-3 0  9997
2 45261  51.6416 146.3168 0008563 333.9642  26.0916 15.50100387  2213
RADSAT-U                
1 45262U 98067RF  20063.80196005  .00004538  00000-0  87422-4 0  9996
2 45262  51.6419 149.8336 0007554   7.6100 352.5002 15.50004963  2121
SOCRATES                
1 45263U 98067RG  20063.54520388  .00002998  00000-0  60793-4 0  9993
2 45263  51.6422 151.1179 0007774 328.5335  31.5188 15.49854817  2102
SORTIE                  
1 45264U 98067RH  20063.86850552  .00003148  00000-0  63637-4 0  9996
2 45264  51.6423 149.5277 0007866 340.6169  19.4520 15.49764917  2124
ICS-EF                  
1 45265U 98067RJ  20063.61464367  .00001880  00000-0  41931-4 0  9999
2 45265  51.6421 150.8316 0005556 342.3476  17.7319 15.49262419  1762
